COSMOS 2433 (720)       
1 32275U 07052A   26065.14823072 -.00000060  00000+0  00000+0 0  9994
2 32275  65.6339 319.4027 0001925 271.0893  88.9473  2.13103993142867
COSMOS 2432 (719)       
1 32276U 07052B   26065.45407802 -.00000061  00000+0  00000+0 0  9999
2 32276  65.6497 319.5182 0010513 331.0793 207.8154  2.13103095142899
COSMOS 2434 (721)       
1 32393U 07065A   26064.58450806  .00000016  00000+0  00000+0 0  9997
2 32393  64.3181 195.4072 0003739  70.4545 107.4157  2.13101183141562
COSMOS 2436 (723)       
1 32395U 07065C   26063.04733503  .00000000  00000+0  00000+0 0  9990
2 32395  64.3269 195.5300 0017530   7.4777 203.8673  2.13099973141485
COSMOS 2456 (730)       
1 36111U 09070A   26065.71551972 -.00000003  00000+0  00000+0 0  9996
2 36111  64.9504  74.4664 0006339 306.1102 176.9939  2.13103461126247
COSMOS 2457 (733)       
1 36112U 09070B   26066.09311541 -.00000003  00000+0  00000+0 0  9995
2 36112  64.9364  74.2994 0002145 196.4639 344.6731  2.13100909126251
COSMOS 2460 (732)       
1 36402U 10007C   26063.07006766 -.00000051  00000+0  00000+0 0  9997
2 36402  65.4801 318.0258 0001792  14.3302   8.4003  2.13106010124499
COSMOS 2476 (744)       
1 37867U 11064A   26065.17118656  .00000001  00000+0  00000+0 0  9996
2 37867  65.2104  76.3481 0025186 241.3746  92.4806  2.13103631111562
COSMOS 2477 (745)       
1 37868U 11064B   26062.25639741  .00000024  00000+0  00000+0 0  9991
2 37868  65.2151  76.5253 0022241 242.8811 195.4983  2.13102695111505
COSMOS 2475 (743)       
1 37869U 11064C   26065.66634538  .00000000  00000+0  00000+0 0  9993
2 37869  65.2241  76.4304 0028031 254.4778 235.4579  2.13101515111580
COSMOS 2485 (747)       
1 39155U 13019A   26063.73454937  .00000012  00000+0  00000+0 0  9997
2 39155  65.3600  77.1091 0025497 236.8511 122.9458  2.13102928100058
COSMOS 2492 (754)       
1 39620U 14012A   26065.57044016 -.00000059  00000+0  00000+0 0  9997
2 39620  65.3564 317.4255 0013141 326.4399  33.5365  2.13103231 93052
COSMOS 2500 (755)       
1 40001U 14032A   26064.33376667 -.00000055  00000+0  00000+0 0  9993
2 40001  65.2924 317.2230 0005183 201.3822 158.6566  2.13105772 91249
COSMOS 2501 (702K)      
1 40315U 14075A   26060.84023701 -.00000015  00000+0  00000+0 0  9994
2 40315  63.6170 194.0851 0020735 205.7160 154.1408  2.13101099 87569
COSMOS 2514 (751)       
1 41330U 16008A   26065.04801300 -.00000057  00000+0  00000+0 0  9992
2 41330  65.0816 316.5487 0009105 208.8848 151.1249  2.13102742 78422
COSMOS 2522 (752)       
1 42939U 17055A   26064.88589677  .00000019  00000+0  00000+0 0  9999
2 42939  64.0788 195.3973 0007310 227.5424 132.3669  2.13101691 65775
COSMOS 2527 (756)       
1 43508U 18053A   26064.84716644  .00000005  00000+0  00000+0 0  9998
2 43508  65.5190  77.3533 0009601 245.4642 114.4730  2.13102075 60073
