[{"OBJECT_NAME":"COSMOS 2433 (720)","OBJECT_ID":"2007-052A","EPOCH":"2026-03-06T03:33:27.134208","MEAN_MOTION":2.13103993,"ECCENTRICITY":0.00019258,"INCLINATION":65.6339,"RA_OF_ASC_NODE":319.4027,"ARG_OF_PERICENTER":271.0893,"MEAN_ANOMALY":88.9473,"EPHEMERIS_TYPE":0,"CLASSIFICATION_TYPE":"U","NORAD_CAT_ID":32275,"ELEMENT_SET_NO":999,"REV_AT_EPOCH":14286,"BSTAR":0,"MEAN_MOTION_DOT":-6.0e-7,"MEAN_MOTION_DDOT":0},{"OBJECT_NAME":"COSMOS 2432 (719)","OBJECT_ID":"2007-052B","EPOCH":"2026-03-06T10:53:52.340928","MEAN_MOTION":2.13103095,"ECCENTRICITY":0.0010513,"INCLINATION":65.6497,"RA_OF_ASC_NODE":319.5182,"ARG_OF_PERICENTER":331.0793,"MEAN_ANOMALY":207.8154,"EPHEMERIS_TYPE":0,"CLASSIFICATION_TYPE":"U","NORAD_CAT_ID":32276,"ELEMENT_SET_NO":999,"REV_AT_EPOCH":14289,"BSTAR":0,"MEAN_MOTION_DOT":-6.1e-7,"MEAN_MOTION_DDOT":0},{"OBJECT_NAME":"COSMOS 2434 (721)","OBJECT_ID":"2007-065A","EPOCH":"2026-03-05T14:01:41.496384","MEAN_MOTION":2.13101183,"ECCENTRICITY":0.0003739,"INCLINATION":64.3181,"RA_OF_ASC_NODE":195.4072,"ARG_OF_PERICENTER":70.4545,"MEAN_ANOMALY":107.4157,"EPHEMERIS_TYPE":0,"CLASSIFICATION_TYPE":"U","NORAD_CAT_ID":32393,"ELEMENT_SET_NO":999,"REV_AT_EPOCH":14156,"BSTAR":0,"MEAN_MOTION_DOT":1.6e-7,"MEAN_MOTION_DDOT":0},{"OBJECT_NAME":"COSMOS 2436 (723)","OBJECT_ID":"2007-065C","EPOCH":"2026-03-04T01:08:09.746592","MEAN_MOTION":2.13099973,"ECCENTRICITY":0.00175306,"INCLINATION":64.3269,"RA_OF_ASC_NODE":195.53,"ARG_OF_PERICENTER":7.4777,"MEAN_ANOMALY":203.8673,"EPHEMERIS_TYPE":0,"CLASSIFICATION_TYPE":"U","NORAD_CAT_ID":32395,"ELEMENT_SET_NO":999,"REV_AT_EPOCH":14148,"BSTAR":0,"MEAN_MOTION_DOT":0,"MEAN_MOTION_DDOT":0},{"OBJECT_NAME":"COSMOS 2456 (730)","OBJECT_ID":"2009-070A","EPOCH":"2026-03-06T17:10:20.903808","MEAN_MOTION":2.13103461,"ECCENTRICITY":0.0006339,"INCLINATION":64.9504,"RA_OF_ASC_NODE":74.4664,"ARG_OF_PERICENTER":306.1102,"MEAN_ANOMALY":176.9939,"EPHEMERIS_TYPE":0,"CLASSIFICATION_TYPE":"U","NORAD_CAT_ID":36111,"ELEMENT_SET_NO":999,"REV_AT_EPOCH":12624,"BSTAR":0,"MEAN_MOTION_DOT":-3.0e-8,"MEAN_MOTION_DDOT":0},{"OBJECT_NAME":"COSMOS 2457 (733)","OBJECT_ID":"2009-070B","EPOCH":"2026-03-07T02:14:05.171424","MEAN_MOTION":2.13100909,"ECCENTRICITY":0.0002145,"INCLINATION":64.9364,"RA_OF_ASC_NODE":74.2994,"ARG_OF_PERICENTER":196.4639,"MEAN_ANOMALY":344.6731,"EPHEMERIS_TYPE":0,"CLASSIFICATION_TYPE":"U","NORAD_CAT_ID":36112,"ELEMENT_SET_NO":999,"REV_AT_EPOCH":12625,"BSTAR":0,"MEAN_MOTION_DOT":-3.0e-8,"MEAN_MOTION_DDOT":0},{"OBJECT_NAME":"COSMOS 2460 (732)","OBJECT_ID":"2010-007C","EPOCH":"2026-03-04T01:40:53.845824","MEAN_MOTION":2.1310601,"ECCENTRICITY":0.00017925,"INCLINATION":65.4801,"RA_OF_ASC_NODE":318.0258,"ARG_OF_PERICENTER":14.3302,"MEAN_ANOMALY":8.4003,"EPHEMERIS_TYPE":0,"CLASSIFICATION_TYPE":"U","NORAD_CAT_ID":36402,"ELEMENT_SET_NO":999,"REV_AT_EPOCH":12449,"BSTAR":0,"MEAN_MOTION_DOT":-5.1e-7,"MEAN_MOTION_DDOT":0},{"OBJECT_NAME":"COSMOS 2476 (744)","OBJECT_ID":"2011-064A","EPOCH":"2026-03-06T04:06:30.518784","MEAN_MOTION":2.13103631,"ECCENTRICITY":0.00251869,"INCLINATION":65.2104,"RA_OF_ASC_NODE":76.3481,"ARG_OF_PERICENTER":241.3746,"MEAN_ANOMALY":92.4806,"EPHEMERIS_TYPE":0,"CLASSIFICATION_TYPE":"U","NORAD_CAT_ID":37867,"ELEMENT_SET_NO":999,"REV_AT_EPOCH":11156,"BSTAR":0,"MEAN_MOTION_DOT":1.0e-8,"MEAN_MOTION_DDOT":0},{"OBJECT_NAME":"COSMOS 2477 (745)","OBJECT_ID":"2011-064B","EPOCH":"2026-03-03T06:09:12.736224","MEAN_MOTION":2.13102695,"ECCENTRICITY":0.00222416,"INCLINATION":65.2151,"RA_OF_ASC_NODE":76.5253,"ARG_OF_PERICENTER":242.8811,"MEAN_ANOMALY":195.4983,"EPHEMERIS_TYPE":0,"CLASSIFICATION_TYPE":"U","NORAD_CAT_ID":37868,"ELEMENT_SET_NO":999,"REV_AT_EPOCH":11150,"BSTAR":0,"MEAN_MOTION_DOT":2.4e-7,"MEAN_MOTION_DDOT":0},{"OBJECT_NAME":"COSMOS 2475 (743)","OBJECT_ID":"2011-064C","EPOCH":"2026-03-06T15:59:32.240832","MEAN_MOTION":2.13101515,"ECCENTRICITY":0.00280314,"INCLINATION":65.2241,"RA_OF_ASC_NODE":76.4304,"ARG_OF_PERICENTER":254.4778,"MEAN_ANOMALY":235.4579,"EPHEMERIS_TYPE":0,"CLASSIFICATION_TYPE":"U","NORAD_CAT_ID":37869,"ELEMENT_SET_NO":999,"REV_AT_EPOCH":11158,"BSTAR":0,"MEAN_MOTION_DOT":0,"MEAN_MOTION_DDOT":0},{"OBJECT_NAME":"COSMOS 2485 (747)","OBJECT_ID":"2013-019A","EPOCH":"2026-03-04T17:37:45.065568","MEAN_MOTION":2.13102928,"ECCENTRICITY":0.00254971,"INCLINATION":65.36,"RA_OF_ASC_NODE":77.1091,"ARG_OF_PERICENTER":236.8511,"MEAN_ANOMALY":122.9458,"EPHEMERIS_TYPE":0,"CLASSIFICATION_TYPE":"U","NORAD_CAT_ID":39155,"ELEMENT_SET_NO":999,"REV_AT_EPOCH":10005,"BSTAR":0,"MEAN_MOTION_DOT":1.2e-7,"MEAN_MOTION_DDOT":0},{"OBJECT_NAME":"COSMOS 2492 (754)","OBJECT_ID":"2014-012A","EPOCH":"2026-03-06T13:41:26.029824","MEAN_MOTION":2.13103231,"ECCENTRICITY":0.0013141,"INCLINATION":65.3564,"RA_OF_ASC_NODE":317.4255,"ARG_OF_PERICENTER":326.4399,"MEAN_ANOMALY":33.5365,"EPHEMERIS_TYPE":0,"CLASSIFICATION_TYPE":"U","NORAD_CAT_ID":39620,"ELEMENT_SET_NO":999,"REV_AT_EPOCH":9305,"BSTAR":0,"MEAN_MOTION_DOT":-5.9e-7,"MEAN_MOTION_DDOT":0},{"OBJECT_NAME":"COSMOS 2500 (755)","OBJECT_ID":"2014-032A","EPOCH":"2026-03-05T08:00:37.440288","MEAN_MOTION":2.13105772,"ECCENTRICITY":0.00051833,"INCLINATION":65.2924,"RA_OF_ASC_NODE":317.223,"ARG_OF_PERICENTER":201.3822,"MEAN_ANOMALY":158.6566,"EPHEMERIS_TYPE":0,"CLASSIFICATION_TYPE":"U","NORAD_CAT_ID":40001,"ELEMENT_SET_NO":999,"REV_AT_EPOCH":9124,"BSTAR":0,"MEAN_MOTION_DOT":-5.5e-7,"MEAN_MOTION_DDOT":0},{"OBJECT_NAME":"COSMOS 2501 (702K)","OBJECT_ID":"2014-075A","EPOCH":"2026-03-01T20:09:56.477664","MEAN_MOTION":2.13101099,"ECCENTRICITY":0.00207353,"INCLINATION":63.617,"RA_OF_ASC_NODE":194.0851,"ARG_OF_PERICENTER":205.716,"MEAN_ANOMALY":154.1408,"EPHEMERIS_TYPE":0,"CLASSIFICATION_TYPE":"U","NORAD_CAT_ID":40315,"ELEMENT_SET_NO":999,"REV_AT_EPOCH":8756,"BSTAR":0,"MEAN_MOTION_DOT":-1.5e-7,"MEAN_MOTION_DDOT":0},{"OBJECT_NAME":"COSMOS 2514 (751)","OBJECT_ID":"2016-008A","EPOCH":"2026-03-06T01:09:08.323200","MEAN_MOTION":2.13102742,"ECCENTRICITY":0.00091052,"INCLINATION":65.0816,"RA_OF_ASC_NODE":316.5487,"ARG_OF_PERICENTER":208.8848,"MEAN_ANOMALY":151.1249,"EPHEMERIS_TYPE":0,"CLASSIFICATION_TYPE":"U","NORAD_CAT_ID":41330,"ELEMENT_SET_NO":999,"REV_AT_EPOCH":7842,"BSTAR":0,"MEAN_MOTION_DOT":-5.7e-7,"MEAN_MOTION_DDOT":0},{"OBJECT_NAME":"COSMOS 2522 (752)","OBJECT_ID":"2017-055A","EPOCH":"2026-03-05T21:15:41.480928","MEAN_MOTION":2.13101691,"ECCENTRICITY":0.00073107,"INCLINATION":64.0788,"RA_OF_ASC_NODE":195.3973,"ARG_OF_PERICENTER":227.5424,"MEAN_ANOMALY":132.3669,"EPHEMERIS_TYPE":0,"CLASSIFICATION_TYPE":"U","NORAD_CAT_ID":42939,"ELEMENT_SET_NO":999,"REV_AT_EPOCH":6577,"BSTAR":0,"MEAN_MOTION_DOT":1.9e-7,"MEAN_MOTION_DDOT":0},{"OBJECT_NAME":"COSMOS 2527 (756)","OBJECT_ID":"2018-053A","EPOCH":"2026-03-05T20:19:55.180416","MEAN_MOTION":2.13102075,"ECCENTRICITY":0.00096015,"INCLINATION":65.519,"RA_OF_ASC_NODE":77.3533,"ARG_OF_PERICENTER":245.4642,"MEAN_ANOMALY":114.473,"EPHEMERIS_TYPE":0,"CLASSIFICATION_TYPE":"U","NORAD_CAT_ID":43508,"ELEMENT_SET_NO":999,"REV_AT_EPOCH":6007,"BSTAR":0,"MEAN_MOTION_DOT":5.0e-8,"MEAN_MOTION_DDOT":0}]
